[{"OBJECT_NAME":"LEMUR-2-AMANDA-SVANTE","OBJECT_ID":"2021-034B","EPOCH":"2026-03-09T18:37:58.823328","MEAN_MOTION":15.28469003,"ECCENTRICITY":0.00027027,"INCLINATION":97.5829,"RA_OF_ASC_NODE":144.8625,"ARG_OF_PERICENTER":205.4721,"MEAN_ANOMALY":154.6385,"EPHEMERIS_TYPE":0,"CLASSIFICATION_TYPE":"U","NORAD_CAT_ID":48269,"ELEMENT_SET_NO":999,"REV_AT_EPOCH":26584,"BSTAR":0.0011134246,"MEAN_MOTION_DOT":0.00030872,"MEAN_MOTION_DDOT":0},{"OBJECT_NAME":"STARLINK-2571","OBJECT_ID":"2021-038BA","EPOCH":"2026-03-09T22:34:34.275072","MEAN_MOTION":15.29348637,"ECCENTRICITY":0.00013661,"INCLINATION":53.16,"RA_OF_ASC_NODE":331.6456,"ARG_OF_PERICENTER":95.8389,"MEAN_ANOMALY":264.2767,"EPHEMERIS_TYPE":0,"CLASSIFICATION_TYPE":"U","NORAD_CAT_ID":48401,"ELEMENT_SET_NO":999,"REV_AT_EPOCH":26747,"BSTAR":-0.00019056542,"MEAN_MOTION_DOT":-5.849e-5,"MEAN_MOTION_DDOT":0}]
